NORAD_CAT_ID,OBJECT_NAME,OBJECT_TYPE,EPOCH,MEAN_MOTION,ECCENTRICITY,INCLINATION,RA_OF_ASC_NODE,ARG_OF_PERICENTER,MEAN_ANOMALY,BSTAR,MEAN_MOTION_DOT,MEAN_MOTION_DDOT,TLE_LINE0,TLE_LINE1,TLE_LINE2,SEMIMAJOR_AXIS,PERIOD,APOGEE,PERIGEE,DECAYED
55944.0,STARLINK-5926,PAYLOAD,2023-04-05 14:00:01,15.69931972,0.0003318,69.9968,128.1628,267.1293,96.9999,0.0004193,0.00050525,0.0,0 STARLINK-5926,1 55944U 23037AG  23095.58334491  .00050525  00000-0  41930-3 0  9995,2 55944  69.9968 128.1628 0003318 267.1293  96.9999 15.69931972  1306,6737.229,91.724,361.329,356.858,0.0
55944.0,STARLINK-5926,PAYLOAD,2023-04-05 16:00:00,15.69977155,0.0003267,69.9972,127.9285,265.8954,209.0617,-0.00030795,-0.00037158,0.0,0 STARLINK-5926,1 55944U 23037AG  23095.66667824 -.00037158  00000-0 -30795-3 0  9999,2 55944  69.9972 127.9285 0003267 265.8954 209.0617 15.69977155  3498,6737.099,91.721,361.165,356.763,0.0
55944.0,STARLINK-5926,PAYLOAD,2023-04-05 22:00:00,15.69932161,0.0003356,69.9971,127.2255,261.2639,186.245,0.00012481,0.00014826,0.0,0 STARLINK-5926,1 55944U 23037AG  23095.91667824  .00014826  00000-0  12481-3 0  9994,2 55944  69.9971 127.2255 0003356 261.2639 186.2450 15.69932161  1303,6737.228,91.724,361.354,356.832,0.0
55944.0,STARLINK-5926,PAYLOAD,2023-04-06 14:00:01,15.69922863,0.0003334,69.9985,125.3506,269.1861,345.0765,8.211e-09,-2.12e-06,0.0,0 STARLINK-5926,1 55944U 23037AG  23096.58335648 -.00000212  00000-0  82110-8 0  9990,2 55944  69.9985 125.3506 0003334 269.1861 345.0765 15.69922863  1308,6737.255,91.724,361.366,356.873,0.0
55944.0,STARLINK-5926,PAYLOAD,2023-04-06 22:00:00,15.69876243,0.0003406,69.999,124.4135,264.0339,73.5229,0.00071082,0.00085968,0.0,0 STARLINK-5926,1 55944U 23037AG  23096.91667824  .00085968  00000-0  71082-3 0  9992,2 55944  69.9990 124.4135 0003406 264.0339  73.5229 15.69876243  1304,6737.388,91.727,361.548,356.958,0.0
55944.0,STARLINK-5926,PAYLOAD,2023-04-07 08:00:01,15.69905084,0.000343,69.9995,123.2421,271.1595,260.5625,9.149e-05,0.00010794,0.0,0 STARLINK-5926,1 55944U 23037AG  23097.33334491  .00010794  00000-0  91490-4 0  9991,2 55944  69.9995 123.2421 0003430 271.1595 260.5625 15.69905084  3759,6737.306,91.725,361.481,356.86,0.0
55944.0,STARLINK-5926,PAYLOAD,2023-04-07 14:00:01,15.69976726,0.0003364,69.9995,122.5392,270.1206,234.0731,-0.00067374,-0.00080627,0.0,0 STARLINK-5926,1 55944U 23037AG  23097.58334491 -.00080627  00000-0 -67374-3 0  9995,2 55944  69.9995 122.5392 0003364 270.1206 234.0731 15.69976726  1306,6737.101,91.721,361.232,356.699,0.0
55944.0,STARLINK-5926,PAYLOAD,2023-04-08 10:47:48,15.69938901,0.0003866,69.998,120.104,265.487,94.5884,8.6349e-05,0.0001019,0.0,0 STARLINK-5926,1 55944U 23037AG  23098.44986825  .00010190  00000-0  86349-4 0  9995,2 55944  69.9980 120.1040 0003866 265.4870  94.5884 15.69938901  3937,6737.209,91.723,361.678,356.469,0.0
55944.0,STARLINK-5926,PAYLOAD,2023-04-08 18:26:35,15.69894148,0.0001644,69.999,119.207,288.8815,71.2203,-7.9469e-05,-9.742e-05,0.0,0 STARLINK-5926,1 55944U 23037AG  23098.76846880 -.00009742  00000-0 -79469-4 0  9994,2 55944  69.9990 119.2070 0001644 288.8815  71.2203 15.69894148  3986,6737.337,91.726,360.309,358.094,0.0
55944.0,STARLINK-5926,PAYLOAD,2023-04-09 03:37:06,15.69895946,0.0003111,69.9988,118.1335,272.5822,87.5018,-7.9882e-06,-1.172e-05,0.0,0 STARLINK-5926,1 55944U 23037AG  23099.15077118 -.00001172  00000-0 -79882-5 0  9997,2 55944  69.9988 118.1335 0003111 272.5822  87.5018 15.69895946  4043,6737.332,91.726,361.293,357.101,0.0
55944.0,STARLINK-5926,PAYLOAD,2023-04-09 09:44:07,15.69909821,0.0002655,70.0013,117.4175,266.6665,93.4227,9.5238e-05,0.00011246,0.0,0 STARLINK-5926,1 55944U 23037AG  23099.40564107  .00011246  00000-0  95238-4 0  9997,2 55944  70.0013 117.4175 0002655 266.6665  93.4227 15.69909821  4080,6737.292,91.725,360.946,357.368,0.0
55944.0,STARLINK-5926,PAYLOAD,2023-04-09 11:15:52,15.69911053,0.0002612,70.0022,117.2399,265.8551,94.2346,0.0002469,0.0002956,0.0,0 STARLINK-5926,1 55944U 23037AG  23099.46935944  .00029560  00000-0  24690-3 0  9995,2 55944  70.0022 117.2399 0002612 265.8551  94.2346 15.69911053  3758,6737.288,91.725,360.913,357.394,0.0
55944.0,STARLINK-5926,PAYLOAD,2023-04-09 12:47:37,15.69929811,0.0003102,70.0013,117.0585,271.3907,88.6933,0.00041331,0.00049789,0.0,0 STARLINK-5926,1 55944U 23037AG  23099.53307464  .00049789  00000-0  41331-3 0  9999,2 55944  70.0013 117.0585 0003102 271.3907  88.6933 15.69929811  4105,6737.235,91.724,361.19,357.01,0.0
55944.0,STARLINK-5926,PAYLOAD,2023-04-10 13:15:37,15.69959557,0.0003626,70.0012,114.1919,283.9978,76.0815,0.00069602,0.00084452,0.0,0 STARLINK-5926,1 55944U 23037AG  23100.55252174  .00084452  00000-0  69602-3 0  9998,2 55944  70.0012 114.1919 0003626 283.9978  76.0815 15.69959557  4268,6737.15,91.722,361.458,356.572,0.0
55944.0,STARLINK-5926,PAYLOAD,2023-04-10 17:50:52,15.69938013,0.0004498,70.0016,113.6551,270.7025,89.3655,0.00070808,0.00085872,0.0,0 STARLINK-5926,1 55944U 23037AG  23100.74366628  .00085872  00000-0  70808-3 0  9996,2 55944  70.0016 113.6551 0004498 270.7025  89.3655 15.69938013  4299,6737.211,91.723,362.107,356.046,0.0
55944.0,STARLINK-5926,PAYLOAD,2023-04-11 12:11:54,15.69933117,0.0003884,70.0001,111.5038,271.9743,88.1008,0.00020744,0.00024816,0.0,0 STARLINK-5926,1 55944U 23037AG  23101.50827265  .00024816  00000-0  20744-3 0  9995,2 55944  70.0001 111.5038 0003884 271.9743  88.1008 15.69933117  4073,6737.225,91.724,361.707,356.474,0.0
55944.0,STARLINK-5926,PAYLOAD,2023-04-11 18:18:55,15.6993213,0.0003491,70.001,110.7881,269.3568,90.7228,0.00015299,0.00018229,0.0,0 STARLINK-5926,1 55944U 23037AG  23101.76314030  .00018229  00000-0  15299-3 0  9994,2 55944  70.0010 110.7881 0003491 269.3568  90.7228 15.69932130  4459,6737.228,91.724,361.445,356.741,0.0
55944.0,STARLINK-5926,PAYLOAD,2023-04-12 09:36:26,15.69926378,0.0003197,70.0011,108.998,272.6579,87.4251,5.1488e-05,5.983e-05,0.0,0 STARLINK-5926,1 55944U 23037AG  23102.40031003  .00005983  00000-0  51488-4 0  9996,2 55944  70.0011 108.9980 0003197 272.6579  87.4251 15.69926378  4558,6737.245,91.724,361.264,356.956,0.0
55944.0,STARLINK-5926,PAYLOAD,2023-04-13 10:04:29,15.69926609,0.0002351,70.0015,106.1313,276.2948,83.798,4.9631e-05,5.759e-05,0.0,0 STARLINK-5926,1 55944U 23037AG  23103.41978045  .00005759  00000-0  49631-4 0  9992,2 55944  70.0015 106.1313 0002351 276.2948  83.7980 15.69926609  4378,6737.244,91.724,360.693,357.525,0.0
55944.0,STARLINK-5926,PAYLOAD,2023-04-14 10:32:30,15.69935014,0.0003572,70.0011,103.2657,266.7458,93.333,8.2918e-05,9.774e-05,0.0,0 STARLINK-5926,1 55944U 23037AG  23104.43924162  .00009774  00000-0  82918-4 0  9992,2 55944  70.0011 103.2657 0003572 266.7458  93.3330 15.69935014  4533,6737.22,91.724,361.491,356.678,0.0
55944.0,STARLINK-5926,PAYLOAD,2023-04-15 06:25:17,15.69928098,0.0003139,70.001,100.9374,267.2786,92.8051,8.2658e-06,7.82e-06,0.0,0 STARLINK-5926,1 55944U 23037AG  23105.26755979  .00000782  00000-0  82658-5 0  9994,2 55944  70.0010 100.9374 0003139 267.2786  92.8051 15.69928098  5002,6737.24,91.724,361.22,356.99,0.0
55944.0,STARLINK-5926,PAYLOAD,2023-04-15 09:28:47,15.69923076,0.0003281,70.0011,100.5802,268.1595,91.9225,-5.2938e-06,-8.49e-06,0.0,0 STARLINK-5926,1 55944U 23037AG  23105.39499540 -.00000849  00000-0 -52938-5 0  9991,2 55944  70.0011 100.5802 0003281 268.1595  91.9225 15.69923076  4688,6737.254,91.724,361.33,356.909,0.0
55944.0,STARLINK-5926,PAYLOAD,2023-04-15 17:07:33,15.69921562,0.0003542,69.9987,99.6817,274.2917,85.7874,9.6015e-06,9.42e-06,0.0,0 STARLINK-5926,1 55944U 23037AG  23105.71357979  .00000942  00000-0  96015-5 0  9992,2 55944  69.9987  99.6817 0003542 274.2917  85.7874 15.69921562  5070,6737.258,91.724,361.51,356.737,0.0
55944.0,STARLINK-5926,PAYLOAD,2023-04-16 08:25:04,15.69926049,0.0003068,70.0013,97.892,266.1025,93.982,1.9378e-05,2.118e-05,0.0,0 STARLINK-5926,1 55944U 23037AG  23106.35074670  .00002118  00000-0  19378-4 0  9990,2 55944  70.0013  97.8920 0003068 266.1025  93.9820 15.69926049  4831,6737.246,91.724,361.178,357.044,0.0
55944.0,STARLINK-5926,PAYLOAD,2023-04-17 05:49:36,15.69931123,0.0002983,70.0016,95.3856,262.6422,97.4435,3.6776e-05,4.213e-05,0.0,0 STARLINK-5926,1 55944U 23037AG  23107.24278028  .00004213  00000-0  36776-4 0  9991,2 55944  70.0016  95.3856 0002983 262.6422  97.4435 15.69931123  5316,6737.231,91.724,361.106,357.086,0.0
55944.0,STARLINK-5926,PAYLOAD,2023-04-17 08:53:06,15.69932724,0.0003256,70.0016,95.0265,264.5643,95.5182,5.3194e-05,6.19e-05,0.0,0 STARLINK-5926,1 55944U 23037AG  23107.37021427  .00006190  00000-0  53194-4 0  9993,2 55944  70.0016  95.0265 0003256 264.5643  95.5182 15.69932724  4996,6737.226,91.724,361.285,356.898,0.0
55944.0,STARLINK-5926,PAYLOAD,2023-04-18 09:21:08,15.69933105,0.0003169,70.0025,92.1597,268.8363,91.2469,4.7477e-05,5.502e-05,0.0,0 STARLINK-5926,1 55944U 23037AG  23108.38968175  .00005502  00000-0  47477-4 0  9998,2 55944  70.0025  92.1597 0003169 268.8363  91.2469 15.69933105  5155,6737.225,91.724,361.225,356.955,0.0
55944.0,STARLINK-5926,PAYLOAD,2023-04-19 08:17:25,15.69934534,0.0003163,70.0016,89.4737,264.7207,95.3628,4.1294e-05,4.757e-05,0.0,0 STARLINK-5926,1 55944U 23037AG  23109.34543149  .00004757  00000-0  41294-4 0  9997,2 55944  70.0016  89.4737 0003163 264.7207  95.3628 15.69934534  5649,6737.221,91.724,361.217,356.955,0.0
55944.0,STARLINK-5926,PAYLOAD,2023-04-19 15:56:11,15.6992204,0.0003169,69.9999,88.5763,263.2233,96.8602,8.2615e-06,7.81e-06,0.0,0 STARLINK-5926,1 55944U 23037AG  23109.66401879  .00000781  00000-0  82615-5 0  9991,2 55944  69.9999  88.5763 0003169 263.2233  96.8602 15.69922040  5359,6737.257,91.724,361.257,356.987,0.0
55944.0,STARLINK-5926,PAYLOAD,2023-04-20 08:45:27,15.69929455,0.0003056,70.0013,86.6039,261.7688,98.3162,4.6361e-05,5.366e-05,0.0,0 STARLINK-5926,1 55944U 23037AG  23110.36490199  .00005366  00000-0  46361-4 0  9994,2 55944  70.0013  86.6039 0003056 261.7688  98.3162 15.69929455  5463,6737.236,91.724,361.16,357.042,0.0
